{
    "type": "FeatureCollection",
    "features": [
        {
            "type": "Feature",
            "properties": {},
            "geometry": {
                "type": "Polygon",
                "coordinates": [
                    [
                        [
                            108.990292,
                            -7.313696
                        ],
                        [
                            109.06292,
                            -7.470454
                        ],
                        [
                            109.173628,
                            -7.56254
                        ],
                        [
                            109.095752,
                            -7.678031
                        ],
                        [
                            109.31461,
                            -7.676871
                        ],
                        [
                            109.446602,
                            -7.758831
                        ],
                        [
                            109.715227,
                            -7.821703
                        ],
                        [
                            110.014282,
                            -7.897881
                        ],
                        [
                            110.561126,
                            -8.151704
                        ],
                        [
                            110.87695,
                            -8.216765
                        ],
                        [
                            111.057806,
                            -8.254688
                        ],
                        [
                            111.309867,
                            -8.275828
                        ],
                        [
                            111.506389,
                            -8.326557
                        ],
                        [
                            111.596106,
                            -8.347693
                        ],
                        [
                            111.702911,
                            -8.385733
                        ],
                        [
                            111.782004,
                            -8.267372
                        ],
                        [
                            111.893081,
                            -8.288511
                        ],
                        [
                            112.157959,
                            -8.313875
                        ],
                        [
                            112.623782,
                            -8.443476
                        ],
                        [
                            112.89616,
                            -8.406778
                        ],
                        [
                            112.971147,
                            -8.324345
                        ],
                        [
                            113.083628,
                            -8.297551
                        ],
                        [
                            113.162781,
                            -8.289306
                        ],
                        [
                            113.266931,
                            -8.291367
                        ],
                        [
                            113.298175,
                            -8.243957
                        ],
                        [
                            113.368997,
                            -8.169737
                        ],
                        [
                            113.377329,
                            -8.02332
                        ],
                        [
                            113.437735,
                            -7.924303
                        ],
                        [
                            113.56688,
                            -7.885102
                        ],
                        [
                            113.689776,
                            -7.792244
                        ],
                        [
                            113.764763,
                            -7.786053
                        ],
                        [
                            113.799966,
                            -7.732393
                        ],
                        [
                            113.979103,
                            -7.005244
                        ],
                        [
                            113.904569,
                            -6.998253
                        ],
                        [
                            113.831807,
                            -7.031332
                        ],
                        [
                            113.787922,
                            -7.099548
                        ],
                        [
                            113.617118,
                            -7.060273
                        ],
                        [
                            113.477558,
                            -7.169821
                        ],
                        [
                            113.193301,
                            -7.170111
                        ],
                        [
                            112.838726,
                            -7.102023
                        ],
                        [
                            112.748352,
                            -7.110646
                        ],
                        [
                            112.779597,
                            -7.068009
                        ],
                        [
                            112.846252,
                            -6.983248
                        ],
                        [
                            112.850418,
                            -6.904675
                        ],
                        [
                            112.592128,
                            -6.917082
                        ],
                        [
                            112.612958,
                            -6.87986
                        ],
                        [
                            112.577547,
                            -6.883996
                        ],
                        [
                            112.571299,
                            -6.848839
                        ],
                        [
                            112.525473,
                            -6.861247
                        ],
                        [
                            112.510892,
                            -6.912946
                        ],
                        [
                            112.419241,
                            -6.86952
                        ],
                        [
                            112.231863,
                            -6.871588
                        ],
                        [
                            112.069476,
                            -6.904271
                        ],
                        [
                            111.956909,
                            -6.749559
                        ],
                        [
                            111.846511,
                            -6.80127
                        ],
                        [
                            111.709337,
                            -6.748273
                        ],
                        [
                            111.569474,
                            -6.639914
                        ],
                        [
                            111.501039,
                            -6.620006
                        ],
                        [
                            111.375802,
                            -6.699911
                        ],
                        [
                            111.267487,
                            -6.697842
                        ],
                        [
                            111.118653,
                            -6.644319
                        ],
                        [
                            111.036173,
                            -6.431593
                        ],
                        [
                            110.958263,
                            -6.410468
                        ],
                        [
                            110.856197,
                            -6.404258
                        ],
                        [
                            110.694564,
                            -6.464709
                        ],
                        [
                            110.630877,
                            -6.613723
                        ],
                        [
                            110.645458,
                            -6.667517
                        ],
                        [
                            110.562139,
                            -6.739923
                        ],
                        [
                            110.560056,
                            -6.793704
                        ],
                        [
                            110.51423,
                            -6.85575
                        ],
                        [
                            110.507983,
                            -6.954809
                        ],
                        [
                            110.343427,
                            -6.952741
                        ],
                        [
                            110.194648,
                            -6.853667
                        ],
                        [
                            109.99551,
                            -6.921607
                        ],
                        [
                            109.89861,
                            -6.916704
                        ],
                        [
                            109.613241,
                            -6.840188
                        ],
                        [
                            109.550751,
                            -6.821574
                        ],
                        [
                            109.514491,
                            -6.783347
                        ],
                        [
                            109.404943,
                            -6.844324
                        ],
                        [
                            109.288296,
                            -6.873277
                        ],
                        [
                            109.163317,
                            -6.854665
                        ],
                        [
                            109.068732,
                            -6.808167
                        ],
                        [
                            108.960387,
                            -6.927923
                        ],
                        [
                            109.020198,
                            -7.106012
                        ],
                        [
                            108.990292,
                            -7.313696
                        ]
                    ]
                ]
            }
        },
        {
            "type": "Feature",
            "properties": {},
            "geometry": {
                "type": "Polygon",
                "coordinates": [
                    [
                        [
                            115.295389,
                            -8.50682
                        ],
                        [
                            115.254064,
                            -8.534066
                        ],
                        [
                            115.205188,
                            -8.542533
                        ],
                        [
                            115.217038,
                            -8.563818
                        ],
                        [
                            115.212739,
                            -8.58695
                        ],
                        [
                            115.203015,
                            -8.610986
                        ],
                        [
                            115.210778,
                            -8.751807
                        ],
                        [
                            115.22967,
                            -8.725618
                        ],
                        [
                            115.269375,
                            -8.701589
                        ],
                        [
                            115.263703,
                            -8.660737
                        ],
                        [
                            115.347966,
                            -8.588077
                        ],
                        [
                            115.370747,
                            -8.574244
                        ],
                        [
                            115.435572,
                            -8.575046
                        ],
                        [
                            115.474362,
                            -8.554854
                        ],
                        [
                            115.51336,
                            -8.538988
                        ],
                        [
                            115.502827,
                            -8.517352
                        ],
                        [
                            115.526325,
                            -8.501324
                        ],
                        [
                            115.605106,
                            -8.515205
                        ],
                        [
                            115.526809,
                            -8.414982
                        ],
                        [
                            115.437712,
                            -8.363736
                        ],
                        [
                            115.373989,
                            -8.362657
                        ],
                        [
                            115.310339,
                            -8.383088
                        ],
                        [
                            115.308354,
                            -8.450719
                        ],
                        [
                            115.295389,
                            -8.50682
                        ]
                    ]
                ]
            }
        }
    ]
}
